[
  {
    "OBJECT_NAME": "STARLINK-30272",
    "OBJECT_ID": "23141W",
    "EPOCH": "2025-11-11T04:18:14.794560",
    "MEAN_MOTION": 15.30194329,
    "ECCENTRICITY": 0.0001531,
    "INCLINATION": 53.1601,
    "RA_OF_ASC_NODE": 114.581,
    "ARG_OF_PERICENTER": 86.0804,
    "MEAN_ANOMALY": 274.0372,
    "EPHEMERIS_TYPE": 0,
    "CLASSIFICATION_TYPE": "U",
    "NORAD_CAT_ID": 57860,
    "ELEMENT_SET_NO": 999,
    "REV_AT_EPOCH": 12218,
    "BSTAR": 3.0583e-05,
    "MEAN_MOTION_DOT": 5.46e-06,
    "MEAN_MOTION_DDOT": 0.0,
    "TLE_LINE1": "1 57860U 23141W   25315.17933790  .00000546  00000+0  30583-4 0  9999",
    "TLE_LINE2": "2 57860  53.1601 114.5810 0001531  86.0804 274.0372 15.30194329122186",
    "COMMENT": "Grouped by shell and plane from TLE"
  },
  {
    "OBJECT_NAME": "STARLINK-31132",
    "OBJECT_ID": "24011N",
    "EPOCH": "2025-11-10T17:10:37.887456",
    "MEAN_MOTION": 15.30204383,
    "ECCENTRICITY": 0.000169,
    "INCLINATION": 53.1565,
    "RA_OF_ASC_NODE": 116.1565,
    "ARG_OF_PERICENTER": 83.7013,
    "MEAN_ANOMALY": 276.418,
    "EPHEMERIS_TYPE": 0,
    "CLASSIFICATION_TYPE": "U",
    "NORAD_CAT_ID": 58777,
    "ELEMENT_SET_NO": 999,
    "REV_AT_EPOCH": 10334,
    "BSTAR": 5.9948e-05,
    "MEAN_MOTION_DOT": 1.417e-05,
    "MEAN_MOTION_DDOT": 0.0,
    "TLE_LINE1": "1 58777U 24011N   25314.71571629  .00001417  00000+0  59948-4 0  9996",
    "TLE_LINE2": "2 58777  53.1565 116.1565 0001690  83.7013 276.4180 15.30204383103342",
    "COMMENT": "Grouped by shell and plane from TLE"
  },
  {
    "OBJECT_NAME": "STARLINK-31189",
    "OBJECT_ID": "24012A",
    "EPOCH": "2025-11-11T03:59:35.912832",
    "MEAN_MOTION": 15.27577617,
    "ECCENTRICITY": 0.0001091,
    "INCLINATION": 43.0028,
    "RA_OF_ASC_NODE": 114.2419,
    "ARG_OF_PERICENTER": 266.7195,
    "MEAN_ANOMALY": 93.3532,
    "EPHEMERIS_TYPE": 0,
    "CLASSIFICATION_TYPE": "U",
    "NORAD_CAT_ID": 58787,
    "ELEMENT_SET_NO": 999,
    "REV_AT_EPOCH": 10311,
    "BSTAR": 7.426000000000001e-05,
    "MEAN_MOTION_DOT": 1.782e-05,
    "MEAN_MOTION_DDOT": 0.0,
    "TLE_LINE1": "1 58787U 24012A   25315.16638788  .00001782  00000+0  74260-4 0  9997",
    "TLE_LINE2": "2 58787  43.0028 114.2419 0001091 266.7195  93.3532 15.27577617103112",
    "COMMENT": "Grouped by shell and plane from TLE"
  },
  {
    "OBJECT_NAME": "STARLINK-31185",
    "OBJECT_ID": "24012B",
    "EPOCH": "2025-11-11T03:46:51.476736",
    "MEAN_MOTION": 15.27576174,
    "ECCENTRICITY": 9.9e-05,
    "INCLINATION": 42.9973,
    "RA_OF_ASC_NODE": 115.0294,
    "ARG_OF_PERICENTER": 258.7056,
    "MEAN_ANOMALY": 101.3685,
    "EPHEMERIS_TYPE": 0,
    "CLASSIFICATION_TYPE": "U",
    "NORAD_CAT_ID": 58788,
    "ELEMENT_SET_NO": 999,
    "REV_AT_EPOCH": 10310,
    "BSTAR": 0.0,
    "MEAN_MOTION_DOT": -1.497e-05,
    "MEAN_MOTION_DDOT": 0.0,
    "TLE_LINE1": "1 58788U 24012B   25315.15754024 -.00001497  00000+0 -44882-4 0  9991",
    "TLE_LINE2": "2 58788  42.9973 115.0294 0000990 258.7056 101.3685 15.27576174103109",
    "COMMENT": "Grouped by shell and plane from TLE"
  },
  {
    "OBJECT_NAME": "STARLINK-31166",
    "OBJECT_ID": "24012C",
    "EPOCH": "2025-11-10T20:32:55.232448",
    "MEAN_MOTION": 15.27544023,
    "ECCENTRICITY": 0.0001162,
    "INCLINATION": 43.001,
    "RA_OF_ASC_NODE": 116.2013,
    "ARG_OF_PERICENTER": 262.0222,
    "MEAN_ANOMALY": 98.0497,
    "EPHEMERIS_TYPE": 0,
    "CLASSIFICATION_TYPE": "U",
    "NORAD_CAT_ID": 58789,
    "ELEMENT_SET_NO": 999,
    "REV_AT_EPOCH": 10306,
    "BSTAR": 0.0,
    "MEAN_MOTION_DOT": -4.652e-05,
    "MEAN_MOTION_DDOT": 0.0,
    "TLE_LINE1": "1 58789U 24012C   25314.85619482 -.00004652  00000+0 -15980-3 0  9998",
    "TLE_LINE2": "2 58789  43.0010 116.2013 0001162 262.0222  98.0497 15.27544023103067",
    "COMMENT": "Grouped by shell and plane from TLE"
  },
  {
    "OBJECT_NAME": "STARLINK-31187",
    "OBJECT_ID": "24012D",
    "EPOCH": "2025-11-11T03:44:59.509248",
    "MEAN_MOTION": 15.27592032,
    "ECCENTRICITY": 0.0001843,
    "INCLINATION": 43.0014,
    "RA_OF_ASC_NODE": 115.0222,
    "ARG_OF_PERICENTER": 277.3072,
    "MEAN_ANOMALY": 82.7571,
    "EPHEMERIS_TYPE": 0,
    "CLASSIFICATION_TYPE": "U",
    "NORAD_CAT_ID": 58790,
    "ELEMENT_SET_NO": 999,
    "REV_AT_EPOCH": 10310,
    "BSTAR": 0.00020599,
    "MEAN_MOTION_DOT": 5.412e-05,
    "MEAN_MOTION_DDOT": 0.0,
    "TLE_LINE1": "1 58790U 24012D   25315.15624432  .00005412  00000+0  20599-3 0  9990",
    "TLE_LINE2": "2 58790  43.0014 115.0222 0001843 277.3072  82.7571 15.27592032103101",
    "COMMENT": "Grouped by shell and plane from TLE"
  },
  {
    "OBJECT_NAME": "STARLINK-31162",
    "OBJECT_ID": "24012E",
    "EPOCH": "2025-11-10T20:31:00.845760",
    "MEAN_MOTION": 15.27594975,
    "ECCENTRICITY": 0.0001294,
    "INCLINATION": 43.0015,
    "RA_OF_ASC_NODE": 116.2033,
    "ARG_OF_PERICENTER": 271.1679,
    "MEAN_ANOMALY": 88.9024,
    "EPHEMERIS_TYPE": 0,
    "CLASSIFICATION_TYPE": "U",
    "NORAD_CAT_ID": 58791,
    "ELEMENT_SET_NO": 999,
    "REV_AT_EPOCH": 10306,
    "BSTAR": 0.0,
    "MEAN_MOTION_DOT": -6.69e-06,
    "MEAN_MOTION_DDOT": 0.0,
    "TLE_LINE1": "1 58791U 24012E   25314.85487090 -.00000669  00000+0 -14785-4 0  9996",
    "TLE_LINE2": "2 58791  43.0015 116.2033 0001294 271.1679  88.9024 15.27594975103065",
    "COMMENT": "Grouped by shell and plane from TLE"
  },
  {
    "OBJECT_NAME": "STARLINK-31184",
    "OBJECT_ID": "24012G",
    "EPOCH": "2025-11-11T04:14:23.753184",
    "MEAN_MOTION": 15.27586126,
    "ECCENTRICITY": 0.000145,
    "INCLINATION": 43.0022,
    "RA_OF_ASC_NODE": 114.3112,
    "ARG_OF_PERICENTER": 259.1415,
    "MEAN_ANOMALY": 100.9273,
    "EPHEMERIS_TYPE": 0,
    "CLASSIFICATION_TYPE": "U",
    "NORAD_CAT_ID": 58793,
    "ELEMENT_SET_NO": 999,
    "REV_AT_EPOCH": 10311,
    "BSTAR": 9.2912e-05,
    "MEAN_MOTION_DOT": 2.296e-05,
    "MEAN_MOTION_DDOT": 0.0,
    "TLE_LINE1": "1 58793U 24012G   25315.17666381  .00002296  00000+0  92912-4 0  9990",
    "TLE_LINE2": "2 58793  43.0022 114.3112 0001450 259.1415 100.9273 15.27586126103116",
    "COMMENT": "Grouped by shell and plane from TLE"
  },
  {
    "OBJECT_NAME": "STARLINK-31192",
    "OBJECT_ID": "24012H",
    "EPOCH": "2025-11-11T03:41:18.362400",
    "MEAN_MOTION": 15.27573439,
    "ECCENTRICITY": 0.0001125,
    "INCLINATION": 43.0045,
    "RA_OF_ASC_NODE": 114.9982,
    "ARG_OF_PERICENTER": 272.4599,
    "MEAN_ANOMALY": 87.6124,
    "EPHEMERIS_TYPE": 0,
    "CLASSIFICATION_TYPE": "U",
    "NORAD_CAT_ID": 58794,
    "ELEMENT_SET_NO": 999,
    "REV_AT_EPOCH": 10310,
    "BSTAR": 0.0,
    "MEAN_MOTION_DOT": -9.07e-06,
    "MEAN_MOTION_DDOT": 0.0,
    "TLE_LINE1": "1 58794U 24012H   25315.15368475 -.00000907  00000+0 -23440-4 0  9991",
    "TLE_LINE2": "2 58794  43.0045 114.9982 0001125 272.4599  87.6124 15.27573439103101",
    "COMMENT": "Grouped by shell and plane from TLE"
  },
  {
    "OBJECT_NAME": "STARLINK-31161",
    "OBJECT_ID": "24012J",
    "EPOCH": "2025-11-10T20:27:17.827488",
    "MEAN_MOTION": 15.27606708,
    "ECCENTRICITY": 0.0001644,
    "INCLINATION": 43.001,
    "RA_OF_ASC_NODE": 116.1761,
    "ARG_OF_PERICENTER": 257.2691,
    "MEAN_ANOMALY": 102.7977,
    "EPHEMERIS_TYPE": 0,
    "CLASSIFICATION_TYPE": "U",
    "NORAD_CAT_ID": 58795,
    "ELEMENT_SET_NO": 999,
    "REV_AT_EPOCH": 10306,
    "BSTAR": 0.00024515,
    "MEAN_MOTION_DOT": 6.495e-05,
    "MEAN_MOTION_DDOT": 0.0,
    "TLE_LINE1": "1 58795U 24012J   25314.85228967  .00006495  00000+0  24515-3 0  9998",
    "TLE_LINE2": "2 58795  43.0010 116.1761 0001644 257.2691 102.7977 15.27606708103069",
    "COMMENT": "Grouped by shell and plane from TLE"
  },
  {
    "OBJECT_NAME": "STARLINK-31195",
    "OBJECT_ID": "24012K",
    "EPOCH": "2025-11-10T12:10:50.868480",
    "MEAN_MOTION": 15.27585721,
    "ECCENTRICITY": 0.0001351,
    "INCLINATION": 43.0022,
    "RA_OF_ASC_NODE": 118.7479,
    "ARG_OF_PERICENTER": 268.255,
    "MEAN_ANOMALY": 91.8147,
    "EPHEMERIS_TYPE": 0,
    "CLASSIFICATION_TYPE": "U",
    "NORAD_CAT_ID": 58796,
    "ELEMENT_SET_NO": 999,
    "REV_AT_EPOCH": 10300,
    "BSTAR": 0.0,
    "MEAN_MOTION_DOT": -8.68e-06,
    "MEAN_MOTION_DDOT": 0.0,
    "TLE_LINE1": "1 58796U 24012K   25314.50753320 -.00000868  00000+0 -22002-4 0  9997",
    "TLE_LINE2": "2 58796  43.0022 118.7479 0001351 268.2550  91.8147 15.27585721103000",
    "COMMENT": "Grouped by shell and plane from TLE"
  },
  {
    "OBJECT_NAME": "STARLINK-31193",
    "OBJECT_ID": "24012L",
    "EPOCH": "2025-11-10T20:40:17.062176",
    "MEAN_MOTION": 15.27577312,
    "ECCENTRICITY": 0.0001385,
    "INCLINATION": 43.0017,
    "RA_OF_ASC_NODE": 116.2431,
    "ARG_OF_PERICENTER": 269.9378,
    "MEAN_ANOMALY": 90.1315,
    "EPHEMERIS_TYPE": 0,
    "CLASSIFICATION_TYPE": "U",
    "NORAD_CAT_ID": 58797,
    "ELEMENT_SET_NO": 999,
    "REV_AT_EPOCH": 10306,
    "BSTAR": 0.0,
    "MEAN_MOTION_DOT": -8.45e-06,
    "MEAN_MOTION_DDOT": 0.0,
    "TLE_LINE1": "1 58797U 24012L   25314.86130859 -.00000845  00000+0 -21194-4 0  9999",
    "TLE_LINE2": "2 58797  43.0017 116.2431 0001385 269.9378  90.1315 15.27577312103061",
    "COMMENT": "Grouped by shell and plane from TLE"
  },
  {
    "OBJECT_NAME": "STARLINK-31168",
    "OBJECT_ID": "24012M",
    "EPOCH": "2025-11-10T17:37:30.209952",
    "MEAN_MOTION": 15.27586265,
    "ECCENTRICITY": 0.0001422,
    "INCLINATION": 43.002,
    "RA_OF_ASC_NODE": 117.0112,
    "ARG_OF_PERICENTER": 279.6254,
    "MEAN_ANOMALY": 80.4437,
    "EPHEMERIS_TYPE": 0,
    "CLASSIFICATION_TYPE": "U",
    "NORAD_CAT_ID": 58798,
    "ELEMENT_SET_NO": 999,
    "REV_AT_EPOCH": 10304,
    "BSTAR": 6.4527e-05,
    "MEAN_MOTION_DOT": 1.514e-05,
    "MEAN_MOTION_DDOT": 0.0,
    "TLE_LINE1": "1 58798U 24012M   25314.73437743  .00001514  00000+0  64527-4 0  9997",
    "TLE_LINE2": "2 58798  43.0020 117.0112 0001422 279.6254  80.4437 15.27586265103046",
    "COMMENT": "Grouped by shell and plane from TLE"
  }
]